{
  "type": "FeatureCollection",
  "features": [
    {
      "type": "Feature",
      "properties": {
        "norad_id": 39773,
        "name": "EUTELSAT 3B",
        "group": "eutelsat",
        "lat": -0.014220355657285539,
        "lon": -179.90935540598014,
        "alt_km": 35772.70595054928,
        "timestamp": "2025-12-03T06:58:42.912660+00:00",
        "meta_object_name": "EUTELSAT 3B",
        "meta_object_id": "2014-030A",
        "meta_epoch": "2025-12-02T18:48:38.705184",
        "meta_mean_motion": 1.0027068,
        "meta_eccentricity": 0.0004768,
        "meta_inclination": 0.0632,
        "meta_ra_of_asc_node": 0.3895,
        "meta_arg_of_pericenter": 226.9231,
        "meta_mean_anomaly": 129.829,
        "meta_ephemeris_type": 0,
        "meta_classification_type": "U",
        "meta_norad_cat_id": 39773,
        "meta_element_set_no": 999,
        "meta_rev_at_epoch": 4209,
        "meta_bstar": 0,
        "meta_mean_motion_dot": 4e-07,
        "meta_mean_motion_ddot": 0,
        "tle_line1": "1 39773U 14030A   25336.78378131  .00000040  00000+0  00000+0 0  9996",
        "tle_line2": "2 39773   0.0632   0.3895 0004768 226.9231 129.8290  1.00270680 42097"
      },
      "geometry": {
        "type": "Point",
        "coordinates": [
          -179.90935540598014,
          -0.014220355657285539
        ]
      }
    },
    {
      "type": "Feature",
      "properties": {
        "norad_id": 40425,
        "name": "EUTELSAT 115 WEST B",
        "group": "eutelsat",
        "lat": -0.006741280019892859,
        "lon": 62.1312553874166,
        "alt_km": 35784.83368598682,
        "timestamp": "2025-12-03T06:58:42.912672+00:00",
        "meta_object_name": "EUTELSAT 115 WEST B",
        "meta_object_id": "2015-010B",
        "meta_epoch": "2025-12-02T10:37:38.767584",
        "meta_mean_motion": 1.00269409,
        "meta_eccentricity": 4.876e-05,
        "meta_inclination": 0.017,
        "meta_ra_of_asc_node": 149.052,
        "meta_arg_of_pericenter": 249.23,
        "meta_mean_anomaly": 77.7769,
        "meta_ephemeris_type": 0,
        "meta_classification_type": "U",
        "meta_norad_cat_id": 40425,
        "meta_element_set_no": 999,
        "meta_rev_at_epoch": 3942,
        "meta_bstar": 0,
        "meta_mean_motion_dot": -4e-08,
        "meta_mean_motion_ddot": 0,
        "tle_line1": "1 40425U 15010B   25336.44280981 -.00000004  00000+0  00000+0 0  9990",
        "tle_line2": "2 40425   0.0170 149.0520 0000487 249.2300  77.7769  1.00269409 39427"
      },
      "geometry": {
        "type": "Point",
        "coordinates": [
          62.1312553874166,
          -0.006741280019892859
        ]
      }
    },
    {
      "type": "Feature",
      "properties": {
        "norad_id": 40875,
        "name": "EUTELSAT 8 WEST B",
        "group": "eutelsat",
        "lat": -0.015318005756046551,
        "lon": 168.99393421394737,
        "alt_km": 35784.68017759419,
        "timestamp": "2025-12-03T06:58:42.912684+00:00",
        "meta_object_name": "EUTELSAT 8 WEST B",
        "meta_object_id": "2015-039B",
        "meta_epoch": "2025-12-02T17:10:16.949280",
        "meta_mean_motion": 1.00271544,
        "meta_eccentricity": 0.0004133,
        "meta_inclination": 0.066,
        "meta_ra_of_asc_node": 345.7072,
        "meta_arg_of_pericenter": 268.5591,
        "meta_mean_anomaly": 67.1264,
        "meta_ephemeris_type": 0,
        "meta_classification_type": "U",
        "meta_norad_cat_id": 40875,
        "meta_element_set_no": 999,
        "meta_rev_at_epoch": 3768,
        "meta_bstar": 0,
        "meta_mean_motion_dot": -4.5e-07,
        "meta_mean_motion_ddot": 0,
        "tle_line1": "1 40875U 15039B   25336.71547395 -.00000045  00000+0  00000+0 0  9990",
        "tle_line2": "2 40875   0.0660 345.7072 0004133 268.5591  67.1264  1.00271544 37687"
      },
      "geometry": {
        "type": "Point",
        "coordinates": [
          168.99393421394737,
          -0.015318005756046551
        ]
      }
    },
    {
      "type": "Feature",
      "properties": {
        "norad_id": 41310,
        "name": "EUTELSAT 9B",
        "group": "eutelsat",
        "lat": 0.03346517374874102,
        "lon": -174.03363440437096,
        "alt_km": 35781.97548231427,
        "timestamp": "2025-12-03T06:58:42.912696+00:00",
        "meta_object_name": "EUTELSAT 9B",
        "meta_object_id": "2016-005A",
        "meta_epoch": "2025-12-02T18:40:38.741952",
        "meta_mean_motion": 1.0027112,
        "meta_eccentricity": 0.0004873,
        "meta_inclination": 0.0639,
        "meta_ra_of_asc_node": 74.794,
        "meta_arg_of_pericenter": 189.4665,
        "meta_mean_anomaly": 96.7651,
        "meta_ephemeris_type": 0,
        "meta_classification_type": "U",
        "meta_norad_cat_id": 41310,
        "meta_element_set_no": 999,
        "meta_rev_at_epoch": 3614,
        "meta_bstar": 0,
        "meta_mean_motion_dot": 8.2e-07,
        "meta_mean_motion_ddot": 0,
        "tle_line1": "1 41310U 16005A   25336.77822618  .00000082  00000+0  00000+0 0  9999",
        "tle_line2": "2 41310   0.0639  74.7940 0004873 189.4665  96.7651  1.00271120 36143"
      },
      "geometry": {
        "type": "Point",
        "coordinates": [
          -174.03363440437096,
          0.03346517374874102
        ]
      }
    },
    {
      "type": "Feature",
      "properties": {
        "norad_id": 41382,
        "name": "EUTELSAT 65 WEST A",
        "group": "eutelsat",
        "lat": 0.04960003989472086,
        "lon": 111.81854973160854,
        "alt_km": 35795.92659663763,
        "timestamp": "2025-12-03T06:58:42.912707+00:00",
        "meta_object_name": "EUTELSAT 65 WEST A",
        "meta_object_id": "2016-014A",
        "meta_epoch": "2025-12-02T08:20:18.826368",
        "meta_mean_motion": 1.00271105,
        "meta_eccentricity": 0.00027191,
        "meta_inclination": 0.0509,
        "meta_ra_of_asc_node": 341.0284,
        "meta_arg_of_pericenter": 276.9508,
        "meta_mean_anomaly": 233.3555,
        "meta_ephemeris_type": 0,
        "meta_classification_type": "U",
        "meta_norad_cat_id": 41382,
        "meta_element_set_no": 999,
        "meta_rev_at_epoch": 3556,
        "meta_bstar": 0,
        "meta_mean_motion_dot": -2.56e-06,
        "meta_mean_motion_ddot": 0,
        "tle_line1": "1 41382U 16014A   25336.34744012 -.00000256  00000+0  00000+0 0  9996",
        "tle_line2": "2 41382   0.0509 341.0284 0002719 276.9508 233.3555  1.00271105 35564"
      },
      "geometry": {
        "type": "Point",
        "coordinates": [
          111.81854973160854,
          0.04960003989472086
        ]
      }
    },
    {
      "type": "Feature",
      "properties": {
        "norad_id": 41589,
        "name": "EUTELSAT 117 WEST B",
        "group": "eutelsat",
        "lat": -0.013706036973071371,
        "lon": 60.03296153680952,
        "alt_km": 35786.47683671754,
        "timestamp": "2025-12-03T06:58:42.912719+00:00",
        "meta_object_name": "EUTELSAT 117 WEST B",
        "meta_object_id": "2016-038B",
        "meta_epoch": "2025-12-02T10:37:38.767584",
        "meta_mean_motion": 1.0026853,
        "meta_eccentricity": 2.024e-05,
        "meta_inclination": 0.0102,
        "meta_ra_of_asc_node": 144.9746,
        "meta_arg_of_pericenter": 219.6495,
        "meta_mean_anomaly": 109.3395,
        "meta_ephemeris_type": 0,
        "meta_classification_type": "U",
        "meta_norad_cat_id": 41589,
        "meta_element_set_no": 999,
        "meta_rev_at_epoch": 3469,
        "meta_bstar": 0,
        "meta_mean_motion_dot": 9e-08,
        "meta_mean_motion_ddot": 0,
        "tle_line1": "1 41589U 16038B   25336.44280981  .00000009  00000+0  00000+0 0  9997",
        "tle_line2": "2 41589   0.0102 144.9746 0000202 219.6495 109.3395  1.00268530 34694"
      },
      "geometry": {
        "type": "Point",
        "coordinates": [
          60.03296153680952,
          -0.013706036973071371
        ]
      }
    },
    {
      "type": "Feature",
      "properties": {
        "norad_id": 42741,
        "name": "EUTELSAT 172B",
        "group": "eutelsat",
        "lat": -0.004279415984767141,
        "lon": -10.9653148740205,
        "alt_km": 35786.32959418965,
        "timestamp": "2025-12-03T06:58:42.912731+00:00",
        "meta_object_name": "EUTELSAT 172B",
        "meta_object_id": "2017-029B",
        "meta_epoch": "2025-12-02T09:32:38.562720",
        "meta_mean_motion": 1.00270978,
        "meta_eccentricity": 2.231e-05,
        "meta_inclination": 0.0165,
        "meta_ra_of_asc_node": 133.0464,
        "meta_arg_of_pericenter": 122.4326,
        "meta_mean_anomaly": 131.1829,
        "meta_ephemeris_type": 0,
        "meta_classification_type": "U",
        "meta_norad_cat_id": 42741,
        "meta_element_set_no": 999,
        "meta_rev_at_epoch": 3175,
        "meta_bstar": 0,
        "meta_mean_motion_dot": 1.5e-07,
        "meta_mean_motion_ddot": 0,
        "tle_line1": "1 42741U 17029B   25336.39766855  .00000015  00000+0  00000+0 0  9999",
        "tle_line2": "2 42741   0.0165 133.0464 0000223 122.4326 131.1829  1.00270978 31755"
      },
      "geometry": {
        "type": "Point",
        "coordinates": [
          -10.9653148740205,
          -0.004279415984767141
        ]
      }
    }
  ]
}